NORAD_CAT_ID,OBJECT_NAME,OBJECT_TYPE,EPOCH,MEAN_MOTION,ECCENTRICITY,INCLINATION,RA_OF_ASC_NODE,ARG_OF_PERICENTER,MEAN_ANOMALY,BSTAR,MEAN_MOTION_DOT,MEAN_MOTION_DDOT,TLE_LINE0,TLE_LINE1,TLE_LINE2,SEMIMAJOR_AXIS,PERIOD,APOGEE,PERIGEE,DECAYED
52672.0,STARLINK-4073,PAYLOAD,2023-08-13 18:25:25,15.0883777,0.0001082,53.2158,49.1055,93.1578,266.9537,8.2565e-05,1.026e-05,0.0,0 STARLINK-4073,1 52672U 22053S   23225.76765438  .00001026  00000-0  82565-4 0  9993,2 52672  53.2158  49.1055 0001082  93.1578 266.9537 15.08837770 68879,6917.887,95.438,540.501,539.004,0.0
52672.0,STARLINK-4073,PAYLOAD,2023-08-15 05:23:54,15.0884369,0.0001081,53.2168,42.5638,86.043,274.0686,0.00010165,1.33e-05,0.0,0 STARLINK-4073,1 52672U 22053S   23227.22493080  .00001330  00000-0  10165-3 0  9991,2 52672  53.2168  42.5638 0001081  86.0430 274.0686 15.08843690 69099,6917.869,95.437,540.482,538.986,0.0
52672.0,STARLINK-4073,PAYLOAD,2023-08-16 11:36:14,15.08837666,0.0001166,53.2139,36.9115,90.7512,269.3614,3.2484e-05,2.29e-06,0.0,0 STARLINK-4073,1 52672U 22053S   23228.48349545  .00000229  00000-0  32484-4 0  9991,2 52672  53.2139  36.9115 0001166  90.7512 269.3614 15.08837666 69286,6917.888,95.438,540.559,538.946,0.0
52672.0,STARLINK-4073,PAYLOAD,2023-08-18 09:42:24,15.08837761,0.0001653,53.2176,28.2928,94.9179,265.2002,6.5495e-05,7.54e-06,0.0,0 STARLINK-4073,1 52672U 22053S   23230.40445531  .00000754  00000-0  65495-4 0  9999,2 52672  53.2176  28.2928 0001653  94.9179 265.2002 15.08837761 69573,6917.887,95.438,540.896,538.609,0.0
52672.0,STARLINK-4073,PAYLOAD,2023-08-19 11:08:35,15.08832481,0.0001379,53.2182,23.5332,97.5186,262.5963,-9.009e-06,-4.31e-06,0.0,0 STARLINK-4073,1 52672U 22053S   23231.46430388 -.00000431  00000-0 -90090-5 0  9994,2 52672  53.2182  23.5332 0001379  97.5186 262.5963 15.08832481 69737,6917.903,95.438,540.722,538.814,0.0
52672.0,STARLINK-4073,PAYLOAD,2023-08-20 09:23:59,15.08833817,0.0001246,53.2182,19.3701,99.7435,260.3698,0.0001588,2.24e-05,0.0,0 STARLINK-4073,1 52672U 22053S   23232.39166000  .00002240  00000-0  15880-3 0  9994,2 52672  53.2182  19.3701 0001246  99.7435 260.3698 15.08833817 69874,6917.899,95.438,540.626,538.902,0.0
52672.0,STARLINK-4073,PAYLOAD,2023-08-21 15:36:19,15.08838346,9.23e-05,53.2188,13.7215,68.3503,291.7588,0.00011118,1.482e-05,0.0,0 STARLINK-4073,1 52672U 22053S   23233.65022263  .00001482  00000-0  11118-3 0  9993,2 52672  53.2188  13.7215 0000923  68.3503 291.7588 15.08838346 70068,6917.885,95.438,540.389,539.112,0.0
52672.0,STARLINK-4073,PAYLOAD,2023-08-22 09:05:33,15.08855045,0.0001265,53.2187,10.4509,78.6731,281.4403,-0.00013339,-2.411e-05,0.0,0 STARLINK-4073,1 52672U 22053S   23234.37886025 -.00002411  00000-0 -13339-3 0  9999,2 52672  53.2187  10.4509 0001265  78.6731 281.4403 15.08855045 70173,6917.834,95.437,540.575,538.824,0.0
52672.0,STARLINK-4073,PAYLOAD,2023-08-23 12:07:07,15.08837823,0.0001234,53.2189,5.3957,83.9701,276.1432,4.8985e-05,4.92e-06,0.0,0 STARLINK-4073,1 52672U 22053S   23235.50494477  .00000492  00000-0  48985-4 0  9992,2 52672  53.2189   5.3957 0001234  83.9701 276.1432 15.08837823 70343,6917.887,95.438,540.606,538.898,0.0
52672.0,STARLINK-4073,PAYLOAD,2023-08-24 11:57:54,15.08838406,0.0001888,53.2173,0.9299,126.6752,233.4414,6.5987e-05,7.62e-06,0.0,0 STARLINK-4073,1 52672U 22053S   23236.49854196  .00000762  00000-0  65987-4 0  9990,2 52672  53.2173   0.9299 0001888 126.6752 233.4414 15.08838406 70492,6917.885,95.438,541.056,538.444,0.0
52672.0,STARLINK-4073,PAYLOAD,2023-08-25 13:24:04,15.08841934,0.000154,53.2178,356.1752,113.1849,246.9305,6.5248e-05,7.51e-06,0.0,0 STARLINK-4073,1 52672U 22053S   23237.55838121  .00000751  00000-0  65248-4 0  9996,2 52672  53.2178 356.1752 0001540 113.1849 246.9305 15.08841934 71073,6917.874,95.437,540.805,538.674,0.0
52672.0,STARLINK-4073,PAYLOAD,2023-08-25 18:10:13,15.08842991,0.0001457,53.2178,355.2831,114.3633,245.7512,9.733e-05,1.262e-05,0.0,0 STARLINK-4073,1 52672U 22053S   23237.75709952  .00001262  00000-0  97330-4 0  9992,2 52672  53.2178 355.2831 0001457 114.3633 245.7512 15.08842991 70689,6917.871,95.437,540.744,538.728,0.0
52672.0,STARLINK-4073,PAYLOAD,2023-08-25 19:45:36,15.08845518,0.0001442,53.2179,354.9869,113.0011,247.1134,0.0001412,1.96e-05,0.0,0 STARLINK-4073,1 52672U 22053S   23237.82333687  .00001960  00000-0  14120-3 0  9998,2 52672  53.2179 354.9869 0001442 113.0011 247.1134 15.08845518 71110,6917.864,95.437,540.726,538.731,0.0
52672.0,STARLINK-4073,PAYLOAD,2023-08-26 06:53:19,15.08827797,0.0001357,53.2194,352.9128,36.2506,323.8578,1.337e-05,-7.5e-07,0.0,0 STARLINK-4073,1 52672U 22053S   23238.28703349 -.00000075  00000-0  13370-4 0  9999,2 52672  53.2194 352.9128 0001357  36.2506 323.8578 15.08827797 70766,6917.918,95.438,540.721,538.844,0.0
52672.0,STARLINK-4073,PAYLOAD,2023-08-26 11:39:29,15.08829082,0.0001347,53.22,352.0202,42.8264,317.2833,-2.9531e-05,-7.58e-06,0.0,0 STARLINK-4073,1 52672U 22053S   23238.48575638 -.00000758  00000-0 -29531-4 0  9994,2 52672  53.2200 352.0202 0001347  42.8264 317.2833 15.08829082 71212,6917.914,95.438,540.711,538.847,0.0
52672.0,STARLINK-4073,PAYLOAD,2023-08-27 08:19:29,15.08841199,0.0001268,53.218,348.148,96.9445,263.1691,-1.9954e-06,-3.2e-06,0.0,0 STARLINK-4073,1 52672U 22053S   23239.34686877 -.00000320  00000-0 -19954-5 0  9992,2 52672  53.2180 348.1480 0001268  96.9445 263.1691 15.08841199 70927,6917.877,95.437,540.619,538.865,0.0
52672.0,STARLINK-4073,PAYLOAD,2023-08-27 14:41:01,15.08842726,0.0001501,53.218,346.9567,118.1466,241.9678,2.0215e-06,-2.56e-06,0.0,0 STARLINK-4073,1 52672U 22053S   23239.61182670 -.00000256  00000-0  20215-5 0  9993,2 52672  53.2180 346.9567 0001501 118.1466 241.9678 15.08842726 71386,6917.872,95.437,540.775,538.699,0.0
52672.0,STARLINK-4073,PAYLOAD,2023-08-28 09:45:39,15.0883739,0.0001409,53.2175,343.3874,118.3811,241.7323,3.076e-05,2.02e-06,0.0,0 STARLINK-4073,1 52672U 22053S   23240.40671120  .00000202  00000-0  30760-4 0  9990,2 52672  53.2175 343.3874 0001409 118.3811 241.7323 15.08837390 71088,6917.888,95.438,540.728,538.779,0.0
52672.0,STARLINK-4073,PAYLOAD,2023-08-28 16:07:11,15.0884654,0.0001225,53.218,342.2005,91.9349,268.1784,0.00013388,1.844e-05,0.0,0 STARLINK-4073,1 52672U 22053S   23240.67166428  .00001844  00000-0  13388-3 0  9998,2 52672  53.2180 342.2005 0001225  91.9349 268.1784 15.08846540 71122,6917.86,95.437,540.573,538.878,0.0
52672.0,STARLINK-4073,PAYLOAD,2023-08-29 09:36:26,15.08840262,0.0001262,53.2175,338.9294,87.19,272.9236,8.2375e-05,1.023e-05,0.0,0 STARLINK-4073,1 52672U 22053S   23241.40030921  .00001023  00000-0  82375-4 0  9990,2 52672  53.2175 338.9294 0001262  87.1900 272.9236 15.08840262 71231,6917.88,95.438,540.618,538.872,0.0
52672.0,STARLINK-4073,PAYLOAD,2023-08-29 15:57:58,15.08850188,0.0001273,53.2182,337.7403,89.066,271.0478,0.00015072,2.112e-05,0.0,0 STARLINK-4073,1 52672U 22053S   23241.66526019  .00002112  00000-0  15072-3 0  9995,2 52672  53.2182 337.7403 0001273  89.0660 271.0478 15.08850188 71274,6917.849,95.437,540.595,538.834,0.0
52672.0,STARLINK-4073,PAYLOAD,2023-08-30 09:27:13,15.08841125,0.0001215,53.2182,334.4688,90.5393,269.5739,-4.3014e-05,-9.72e-06,0.0,0 STARLINK-4073,1 52672U 22053S   23242.39391147 -.00000972  00000-0 -43014-4 0  9990,2 52672  53.2182 334.4688 0001215  90.5393 269.5739 15.08841125 71384,6917.877,95.437,540.582,538.901,0.0
52672.0,STARLINK-4073,PAYLOAD,2023-08-30 15:48:46,15.08845277,0.0001233,53.2175,333.2799,82.0623,278.0509,3.8612e-05,3.27e-06,0.0,0 STARLINK-4073,1 52672U 22053S   23242.65886627  .00000327  00000-0  38612-4 0  9991,2 52672  53.2175 333.2799 0001233  82.0623 278.0509 15.08845277 71841,6917.864,95.437,540.582,538.876,0.0
52672.0,STARLINK-4073,PAYLOAD,2023-08-31 17:14:56,15.08846182,0.0001322,53.2181,328.5225,79.5094,280.6047,1.08e-05,-1.16e-06,0.0,0 STARLINK-4073,1 52672U 22053S   23243.71870535 -.00000116  00000-0  10800-4 0  9996,2 52672  53.2181 328.5225 0001322  79.5094 280.6047 15.08846182 71584,6917.861,95.437,540.641,538.812,0.0
52672.0,STARLINK-4073,PAYLOAD,2023-09-01 12:19:34,15.08827683,3.6e-05,53.2175,324.9572,23.0686,337.0322,0.00015683,2.209e-05,0.0,0 STARLINK-4073,1 52672U 22053S   23244.51359122  .00002209  00000-0  15683-3 0  9996,2 52672  53.2175 324.9572 0000360  23.0686 337.0322 15.08827683 72123,6917.918,95.438,540.032,539.534,0.0
52672.0,STARLINK-4073,PAYLOAD,2023-09-01 17:05:42,15.08850799,0.0001232,53.2172,324.0623,81.6765,278.4367,0.00014123,1.961e-05,0.0,0 STARLINK-4073,1 52672U 22053S   23244.71229864  .00001961  00000-0  14123-3 0  9999,2 52672  53.2172 324.0623 0001232  81.6765 278.4367 15.08850799 72159,6917.847,95.437,540.565,538.86,0.0
52672.0,STARLINK-4073,PAYLOAD,2023-09-01 21:51:52,15.08837113,5.8e-05,53.2189,323.1719,182.3335,177.7654,-3.9417e-05,-9.15e-06,0.0,0 STARLINK-4073,1 52672U 22053S   23244.91102966 -.00000915  00000-0 -39417-4 0  9998,2 52672  53.2189 323.1719 0000580 182.3335 177.7654 15.08837113 71761,6917.889,95.438,540.155,539.353,0.0
52672.0,STARLINK-4073,PAYLOAD,2023-09-02 05:48:48,15.08836434,0.0001149,53.2175,321.6821,96.6354,263.4769,-8.4987e-06,-4.23e-06,0.0,0 STARLINK-4073,1 52672U 22053S   23245.24223207 -.00000423  00000-0 -84987-5 0  9994,2 52672  53.2175 321.6821 0001149  96.6354 263.4769 15.08836434 72231,6917.891,95.438,540.551,538.961,0.0
52672.0,STARLINK-4073,PAYLOAD,2023-09-02 16:56:29,15.08846516,0.0001724,53.2137,319.6033,98.234,261.8848,0.00011205,1.496e-05,0.0,0 STARLINK-4073,1 52672U 22053S   23245.70590155  .00001496  00000-0  11205-3 0  9994,2 52672  53.2137 319.6033 0001724  98.2340 261.8848 15.08846516 71885,6917.86,95.437,540.918,538.533,0.0
52672.0,STARLINK-4073,PAYLOAD,2023-09-03 12:01:08,15.08845849,0.0001286,53.2169,316.034,91.9612,268.1527,-4.6243e-05,-1.024e-05,0.0,0 STARLINK-4073,1 52672U 22053S   23246.50078732 -.00001024  00000-0 -46243-4 0  9995,2 52672  53.2169 316.0340 0001286  91.9612 268.1527 15.08845849 72420,6917.863,95.437,540.617,538.838,0.0
